$$SOE
2460714.500000000, A.D. 2025-Feb-08 00:00:00.0000, 2.972154764346339E+08, -3.550189842448822E+08, -1.595745235503122E+06,
2460721.500000000, A.D. 2025-Feb-15 00:00:00.0000, 3.041548243450130E+08, -3.481528328352429E+08, -1.073311128901124E+06,
2460728.500000000, A.D. 2025-Feb-22 00:00:00.0000, 3.109447322040625E+08, -3.411156865922470E+08, -5.503499045338780E+05,
2460735.500000000, A.D. 2025-Mar-01 00:00:00.0000, 3.175811394747449E+08, -3.339102056781434E+08, -2.711741477407515E+04,
2460742.500000000, A.D. 2025-Mar-08 00:00:00.0000, 3.240600049899718E+08, -3.265391392896993E+08, 4.961277607528418E+05,
2460749.500000000, A.D. 2025-Mar-15 00:00:00.0000, 3.303773082372533E+08, -3.190053252651945E+08, 1.019124468158007E+06,
2460756.500000000, A.D. 2025-Mar-22 00:00:00.0000, 3.365290485279794E+08, -3.113116911314803E+08, 1.541609223388627E+06,
2460763.500000000, A.D. 2025-Mar-29 00:00:00.0000, 3.425112456315860E+08, -3.034612574290403E+08, 2.063316150361329E+06,
2460770.500000000, A.D. 2025-Apr-05 00:00:00.0000, 3.483199422041597E+08, -2.954571401729975E+08, 2.583976839700103E+06,
2460777.500000000, A.D. 2025-Apr-12 00:00:00.0000, 3.539512060902603E+08, -2.873025523430856E+08, 3.103320313249752E+06,
2460784.500000000, A.D. 2025-Apr-19 00:00:00.0000, 3.594011323151273E+08, -2.790008052806269E+08, 3.621073039538652E+06,
2460791.500000000, A.D. 2025-Apr-26 00:00:00.0000, 3.646658450432113E+08, -2.705553101916909E+08, 4.136958958730936E+06,
2460798.500000000, A.D. 2025-May-03 00:00:00.0000, 3.697414996210989E+08, -2.619695797330585E+08, 4.650699508314729E+06,
2460805.500000000, A.D. 2025-May-10 00:00:00.0000, 3.746242847378214E+08, -2.532472296679288E+08, 5.162013647776470E+06,
2460812.500000000, A.D. 2025-May-17 00:00:00.0000, 3.793104247434118E+08, -2.443919806276937E+08, 5.670617875721842E+06,
2460819.500000000, A.D. 2025-May-24 00:00:00.0000, 3.837961823034437E+08, -2.354076600287252E+08, 6.176226219210327E+06,
2460826.500000000, A.D. 2025-May-31 00:00:00.0000, 3.880778618117835E+08, -2.262982038267911E+08, 6.678550182674035E+06,
2460833.500000000, A.D. 2025-Jun-07 00:00:00.0000, 3.921518131666788E+08, -2.170676568985782E+08, 7.177298792245612E+06,
2460840.500000000, A.D. 2025-Jun-14 00:00:00.0000, 3.960144335513421E+08, -2.077201727131629E+08, 7.672178898582026E+06,
2460847.500000000, A.D. 2025-Jun-21 00:00:00.0000, 3.996621684382179E+08, -1.982600155597569E+08, 8.162895359603040E+06,
2460854.500000000, A.D. 2025-Jun-28 00:00:00.0000, 4.030915149461300E+08, -1.886915635591522E+08, 8.649150960589521E+06,
2460861.500000000, A.D. 2025-Jul-05 00:00:00.0000, 4.062990260356669E+08, -1.790193102934065E+08, 9.130646387234233E+06,
2460868.500000000, A.D. 2025-Jul-12 00:00:00.0000, 4.092813143546761E+08, -1.692478658494516E+08, 9.607080295355387E+06,
2460875.500000000, A.D. 2025-Jul-19 00:00:00.0000, 4.120350559273952E+08, -1.593819578413202E+08, 1.007814941327113E+07,
2460882.500000000, A.D. 2025-Jul-26 00:00:00.0000, 4.145569939024760E+08, -1.494264324574444E+08, 1.054354865357699E+07,
2460889.500000000, A.D. 2025-Aug-02 00:00:00.0000, 4.168439424310650E+08, -1.393862555021902E+08, 1.100297123094511E+07,
2460896.500000000, A.D. 2025-Aug-09 00:00:00.0000, 4.188927907032752E+08, -1.292665134376816E+08, 1.145610878353056E+07,
2460903.500000000, A.D. 2025-Aug-16 00:00:00.0000, 4.207005072230685E+08, -1.190724144803921E+08, 1.190265148658213E+07,
2460910.500000000, A.D. 2025-Aug-23 00:00:00.0000, 4.222641446149057E+08, -1.088092897260087E+08, 1.234228813335772E+07,
2460917.500000000, A.D. 2025-Aug-30 00:00:00.0000, 4.235808452907070E+08, -9.848259357616378E+07, 1.277470621206988E+07,
2460924.500000000, A.D. 2025-Sep-06 00:00:00.0000, 4.246478465604369E+08, -8.809790245347711E+07, 1.319959219161019E+07,
2460931.500000000, A.D. 2025-Sep-13 00:00:00.0000, 4.254624835172415E+08, -7.766091427615924E+07, 1.361663196735298E+07,
2460938.500000000, A.D. 2025-Sep-20 00:00:00.0000, 4.260221929678829E+08, -6.717745032397950E+07, 1.402551103282691E+07,
2460945.500000000, A.D. 2025-Sep-27 00:00:00.0000, 4.263245194633774E+08, -5.665345636824045E+07, 1.442591453477662E+07,
2460952.500000000, A.D. 2025-Oct-04 00:00:00.0000, 4.263671214113399E+08, -4.609500251002045E+07, 1.481752744125305E+07,
2460959.500000000, A.D. 2025-Oct-11 00:00:00.0000, 4.261477768949442E+08, -3.550828265344180E+07, 1.520003478056571E+07,
2460966.500000000, A.D. 2025-Oct-18 00:00:00.0000, 4.256643894800863E+08, -2.489961387207698E+07, 1.557312190320942E+07,
2460973.500000000, A.D. 2025-Oct-25 00:00:00.0000, 4.249149941472703E+08, -1.427543564104037E+07, 1.593647475535540E+07,
2460980.500000000, A.D. 2025-Nov-01 00:00:00.0000, 4.238977633835010E+08, -3.642308902646889E+06, 1.628978016197689E+07,
2460987.500000000, A.D. 2025-Nov-08 00:00:00.0000, 4.226110134633019E+08, 6.993085019762679E+06, 1.663272611421743E+07,
2460994.500000000, A.D. 2025-Nov-15 00:00:00.0000, 4.210532110596728E+08, 1.762394561801375E+07, 1.696500204284559E+07,
2461001.500000000, A.D. 2025-Nov-22 00:00:00.0000, 4.192229805777424E+08, 2.824335474216691E+07, 1.728629905871624E+07,
2461008.500000000, A.D. 2025-Nov-29 00:00:00.0000, 4.171191120450199E+08, 3.884427964412194E+07, 1.759631026680858E+07,
2461015.500000000, A.D. 2025-Dec-06 00:00:00.0000, 4.147405672698656E+08, 4.941957740627893E+07, 1.789473135200213E+07,
2461022.500000000, A.D. 2025-Dec-13 00:00:00.0000, 4.120864846920727E+08, 5.996199740258225E+07, 1.818126112178837E+07,
2461029.500000000, A.D. 2025-Dec-20 00:00:00.0000, 4.091561864029157E+08, 7.046418283141568E+07, 1.845560176874097E+07,
2461036.500000000, A.D. 2025-Dec-27 00:00:00.0000, 4.059491862420245E+08, 8.091867393017752E+07, 1.871745916267325E+07,
2461043.500000000, A.D. 2026-Jan-03 00:00:00.0000, 4.024651974933969E+08, 9.131791227481353E+07, 1.896654325599815E+07,
2461050.500000000, A.D. 2026-Jan-10 00:00:00.0000, 3.987041402706622E+08, 1.016542455034338E+08, 1.920256853670590E+07,
2461057.500000000, A.D. 2026-Jan-17 00:00:00.0000, 3.946661488024644E+08, 1.119199323898710E+08, 1.942525450000928E+07,
2461064.500000000, A.D. 2026-Jan-24 00:00:00.0000, 3.903515786722233E+08, 1.221071483067037E+08, 1.963432613315462E+07,
2461071.500000000, A.D. 2026-Jan-31 00:00:00.0000, 3.857610140102620E+08, 1.322079910865271E+08, 1.982951441038344E+07,
2461078.500000000, A.D. 2026-Feb-07 00:00:00.0000, 3.808952746729139E+08, 1.422144872394232E+08, 2.001055678743698E+07,
2461085.500000000, A.D. 2026-Feb-14 00:00:00.0000, 3.757554236336128E+08, 1.521185985249198E+08, 2.017719767075525E+07,
2461092.500000000, A.D. 2026-Feb-21 00:00:00.0000, 3.703427749427928E+08, 1.619122294658112E+08, 2.032918887215739E+07,
2461099.500000000, A.D. 2026-Feb-28 00:00:00.0000, 3.646589011359642E+08, 1.715872369657705E+08, 2.046629024158953E+07,
2461106.500000000, A.D. 2026-Mar-07 00:00:00.0000, 3.587056379962201E+08, 1.811354400901211E+08, 2.058827050681116E+07,
2461113.500000000, A.D. 2026-Mar-14 00:00:00.0000, 3.524850894136751E+08, 1.905486276808543E+08, 2.069490787374527E+07,
2461120.500000000, A.D. 2026-Mar-21 00:00:00.0000, 3.459996340830845E+08, 1.998185667017901E+08, 2.078599045837167E+07,
2461127.500000000, A.D. 2026-Mar-28 00:00:00.0000, 3.392519319837316E+08, 2.089370123416024E+08, 2.086131681626320E+07,
2461134.500000000, A.D. 2026-Apr-04 00:00:00.0000, 3.322449299931516E+08, 2.178957189089073E+08, 2.092069654468144E+07,
2461141.500000000, A.D. 2026-Apr-11 00:00:00.0000, 3.249818668664787E+08, 2.266864511571538E+08, 2.096395090159743E+07,
2461148.500000000, A.D. 2026-Apr-18 00:00:00.0000, 3.174662777000684E+08, 2.353009960258434E+08, 2.099091342539744E+07,
2461155.500000000, A.D. 2026-Apr-25 00:00:00.0000, 3.097019978841890E+08, 2.437311748004714E+08, 2.100143055078557E+07,
2461162.500000000, A.D. 2026-May-02 00:00:00.0000, 3.016931665327162E+08, 2.519688556442108E+08, 2.099536221362749E+07,
2461169.500000000, A.D. 2026-May-09 00:00:00.0000, 2.934442294702238E+08, 2.600059664138218E+08, 2.097258242550303E+07,
2461176.500000000, A.D. 2026-May-16 00:00:00.0000, 2.849599421103402E+08, 2.678345078732824E+08, 2.093297979197335E+07,
2461183.500000000, A.D. 2026-May-23 00:00:00.0000, 2.762453722334214E+08, 2.754465682968251E+08, 2.087645805018908E+07,
2461190.500000000, A.D. 2026-May-30 00:00:00.0000, 2.673059005376467E+08, 2.828343397442920E+08, 2.080293683901738E+07,
2461197.500000000, A.D. 2026-Jun-06 00:00:00.0000, 2.581472186006145E+08, 2.899901327007676E+08, 2.071235246070647E+07,
2461204.500000000, A.D. 2026-Jun-13 00:00:00.0000, 2.487753278812593E+08, 2.969063892413591E+08, 2.060465831137031E+07,
2461211.500000000, A.D. 2026-Jun-20 00:00:00.0000, 2.391965392238873E+08, 3.035756975986671E+08, 2.047982526147600E+07,
2461218.500000000, A.D. 2026-Jun-27 00:00:00.0000, 2.294174711281937E+08, 3.099908077411962E+08, 2.033784211061789E+07,
2461225.500000000, A.D. 2026-Jul-04 00:00:00.0000, 2.194450467518434E+08, 3.161446471335883E+08, 2.017871604979274E+07,
2461232.500000000, A.D. 2026-Jul-11 00:00:00.0000, 2.092864898706683E+08, 3.220303364886370E+08, 2.000247309361629E+07,
2461239.500000000, A.D. 2026-Jul-18 00:00:00.0000, 1.989493198644706E+08, 3.276412054747086E+08, 1.980915847258200E+07,
2461246.500000000, A.D. 2026-Jul-25 00:00:00.0000, 1.884413457326061E+08, 3.329708083156185E+08, 1.959883697991307E+07,
2461253.500000000, A.D. 2026-Aug-01 00:00:00.0000, 1.777706591720228E+08, 3.380129391660970E+08, 1.937159326136342E+07,
2461260.500000000, A.D. 2026-Aug-08 00:00:00.0000, 1.669456269225414E+08, 3.427616471559947E+08, 1.912753202224377E+07,
2461267.500000000, A.D. 2026-Aug-15 00:00:00.0000, 1.559748827908831E+08, 3.472112514815367E+08, 1.886677814756009E+07,
2461274.500000000, A.D. 2026-Aug-22 00:00:00.0000, 1.448673185967849E+08, 3.513563576896337E+08, 1.858947690185831E+07,
2461281.500000000, A.D. 2026-Aug-29 00:00:00.0000, 1.336320717593541E+08, 3.551918737004694E+08, 1.829579430347776E+07,
$$EOE